[{"OBJECT_NAME":"STARLINK-33647","OBJECT_ID":"2025-065N","EPOCH":"2026-03-09T11:53:20.431968","MEAN_MOTION":15.27600511,"ECCENTRICITY":4.239e-5,"INCLINATION":42.997,"RA_OF_ASC_NODE":115.6682,"ARG_OF_PERICENTER":312.5722,"MEAN_ANOMALY":47.5094,"EPHEMERIS_TYPE":0,"CLASSIFICATION_TYPE":"U","NORAD_CAT_ID":63411,"ELEMENT_SET_NO":999,"REV_AT_EPOCH":5272,"BSTAR":0.0012972411,"MEAN_MOTION_DOT":0.0003563,"MEAN_MOTION_DDOT":0},{"OBJECT_NAME":"TRANSPORTER-1 OBJECT Z","OBJECT_ID":"2021-006Z","EPOCH":"2026-03-09T22:55:57.522432","MEAN_MOTION":15.30965056,"ECCENTRICITY":0.00100878,"INCLINATION":97.2377,"RA_OF_ASC_NODE":113.4736,"ARG_OF_PERICENTER":179.6869,"MEAN_ANOMALY":180.438,"EPHEMERIS_TYPE":0,"CLASSIFICATION_TYPE":"U","NORAD_CAT_ID":47436,"ELEMENT_SET_NO":999,"REV_AT_EPOCH":28420,"BSTAR":0.00024088983,"MEAN_MOTION_DOT":7.143e-5,"MEAN_MOTION_DDOT":0}]
